GLOBALSTAR M094
1 39074U 13005C   24320.69660537 -.00000110  00000-0 -32692-4 0  9995
2 39074  51.9941 112.1304 0001129 117.0559 243.0423 12.62265426545410
GLOBALSTAR M096
1 39075U 13005D   24320.86814956 -.00000076  00000-0  15465-3 0  9999
2 39075  52.0048 159.9585 0001268 100.0579 260.0431 12.62264805544359
GLOBALSTAR M078
1 39076U 13005E   24320.92046762 -.00000022  00000-0  45802-3 0  9998
2 39076  51.9869 244.5957 0001684  69.0148 291.0899 12.62268049542984
GLOBALSTAR M095
1 39077U 13005F   24321.10570803 -.00000065  00000-0  21802-3 0  9999
2 39077  51.9798 241.3374 0001334  81.0201 279.0816 12.62268086543224
GLOBALSTAR M087
1 52888U 22064A   24320.66513582 -.00000073  00000-0  11158-3 0  9992
2 52888  51.9783  40.3324 0034926 339.7142  20.2367 13.30669644117792
